[
    {
        "Altitude(m)": 573362.9900514918,
        "Argument of Periapsis(deg)": -0.022603160782972403,
        "Eccentricity": 0.0,
        "Inclination(deg)": 97.0,
        "Latitude(deg)": -26.48151378097331,
        "Longitude(deg)": -8.857065779114103,
        "Mean Anomaly(deg)": -26.416856730812547,
        "RAAN(deg)": 90.0059470536185,
        "Satellite Name": "Starlink Shell 3 1806",
        "Satellite Number": 1806,
        "Semi-Major Axis(m)": 6938478.169268562,
        "Time(s)": 570
    },
    {
        "Altitude(m)": 573134.6496292166,
        "Argument of Periapsis(deg)": -0.02299970746337543,
        "Eccentricity": 0.0,
        "Inclination(deg)": 97.0,
        "Latitude(deg)": -25.86037991217413,
        "Longitude(deg)": -8.993083081403743,
        "Mean Anomaly(deg)": -25.791380533107535,
        "RAAN(deg)": 90.00605138789253,
        "Satellite Name": "Starlink Shell 3 1806",
        "Satellite Number": 1806,
        "Semi-Major Axis(m)": 6938478.169268562,
        "Time(s)": 580
    },
    {
        "Altitude(m)": 572908.5478581076,
        "Argument of Periapsis(deg)": -0.023396254143778456,
        "Eccentricity": 0.0,
        "Inclination(deg)": 97.0,
        "Latitude(deg)": -25.23910517621115,
        "Longitude(deg)": -9.128125840456832,
        "Mean Anomaly(deg)": -25.16590433540243,
        "RAAN(deg)": 90.00615572216653,
        "Satellite Name": "Starlink Shell 3 1806",
        "Satellite Number": 1806,
        "Semi-Major Axis(m)": 6938478.169268562,
        "Time(s)": 590
    },
    {
        "Altitude(m)": 572684.7670490604,
        "Argument of Periapsis(deg)": -0.023792800824181483,
        "Eccentricity": 0.0,
        "Inclination(deg)": 97.0,
        "Latitude(deg)": -24.617692890349662,
        "Longitude(deg)": -9.262230611636,
        "Mean Anomaly(deg)": -24.54042813769742,
        "RAAN(deg)": 90.00626005644054,
        "Satellite Name": "Starlink Shell 3 1806",
        "Satellite Number": 1806,
        "Semi-Major Axis(m)": 6938478.169268562,
        "Time(s)": 600
    },
    {
        "Altitude(m)": 572463.3882927167,
        "Argument of Periapsis(deg)": -0.024189347504584503,
        "Eccentricity": 0.0,
        "Inclination(deg)": 97.0,
        "Latitude(deg)": -23.996146335509557,
        "Longitude(deg)": -9.395432801410989,
        "Mean Anomaly(deg)": -23.914951939992413,
        "RAAN(deg)": 90.00636439071454,
        "Satellite Name": "Starlink Shell 3 1806",
        "Satellite Number": 1806,
        "Semi-Major Axis(m)": 6938478.169268562,
        "Time(s)": 610
    },
    {
        "Altitude(m)": 572244.4914224193,
        "Argument of Periapsis(deg)": -0.02458589418498753,
        "Eccentricity": 0.0,
        "Inclination(deg)": 97.0,
        "Latitude(deg)": -23.37446875931074,
        "Longitude(deg)": -9.527766220885729,
        "Mean Anomaly(deg)": -23.28947574228735,
        "RAAN(deg)": 90.00646872498854,
        "Satellite Name": "Starlink Shell 3 1806",
        "Satellite Number": 1806,
        "Semi-Major Axis(m)": 6938478.169268562,
        "Time(s)": 620
    },
    {
        "Altitude(m)": 572028.1549777206,
        "Argument of Periapsis(deg)": -0.024982440865390556,
        "Eccentricity": 0.0,
        "Inclination(deg)": 97.0,
        "Latitude(deg)": -22.75266337891832,
        "Longitude(deg)": -9.659264317330377,
        "Mean Anomaly(deg)": -22.663999544582296,
        "RAAN(deg)": 90.00657305926256,
        "Satellite Name": "Starlink Shell 3 1806",
        "Satellite Number": 1806,
        "Semi-Major Axis(m)": 6938478.169268562,
        "Time(s)": 630
    },
    {
        "Altitude(m)": 571814.4561684938,
        "Argument of Periapsis(deg)": -0.025378987545793576,
        "Eccentricity": 0.0,
        "Inclination(deg)": 97.0,
        "Latitude(deg)": -22.13073338369233,
        "Longitude(deg)": -9.789958881483638,
        "Mean Anomaly(deg)": -22.038523346877238,
        "RAAN(deg)": 90.00667739353656,
        "Satellite Name": "Starlink Shell 3 1806",
        "Satellite Number": 1806,
        "Semi-Major Axis(m)": 6938478.169268562,
        "Time(s)": 640
    },
    {
        "Altitude(m)": 571603.4708397071,
        "Argument of Periapsis(deg)": -0.025775534226196602,
        "Eccentricity": 0.0,
        "Inclination(deg)": 97.0,
        "Latitude(deg)": -21.50868193766313,
        "Longitude(deg)": -9.919881273716168,
        "Mean Anomaly(deg)": -21.41304714917218,
        "RAAN(deg)": 90.00678172781058,
        "Satellite Name": "Starlink Shell 3 1806",
        "Satellite Number": 1806,
        "Semi-Major Axis(m)": 6938478.169268562,
        "Time(s)": 650
    },
    {
        "Altitude(m)": 571395.2734368326,
        "Argument of Periapsis(deg)": -0.026172080906599626,
        "Eccentricity": 0.0,
        "Inclination(deg)": 97.0,
        "Latitude(deg)": -20.886512181835162,
        "Longitude(deg)": -10.049061966793976,
        "Mean Anomaly(deg)": -20.787570951467185,
        "RAAN(deg)": 90.0068860620846,
        "Satellite Name": "Starlink Shell 3 1806",
        "Satellite Number": 1806,
        "Semi-Major Axis(m)": 6938478.169268562,
        "Time(s)": 660
    },
    {
        "Altitude(m)": 571189.936971886,
        "Argument of Periapsis(deg)": -0.026568627587002652,
        "Eccentricity": 0.0,
        "Inclination(deg)": 97.0,
        "Latitude(deg)": -20.264227236332168,
        "Longitude(deg)": -10.17753008636878,
        "Mean Anomaly(deg)": -20.162094753762126,
        "RAAN(deg)": 90.0069903963586,
        "Satellite Name": "Starlink Shell 3 1806",
        "Satellite Number": 1806,
        "Semi-Major Axis(m)": 6938478.169268562,
        "Time(s)": 670
    },
    {
        "Altitude(m)": 570987.5329902205,
        "Argument of Periapsis(deg)": -0.02696517426740568,
        "Eccentricity": 0.0,
        "Inclination(deg)": 97.0,
        "Latitude(deg)": -19.641830202396594,
        "Longitude(deg)": -10.30531446221269,
        "Mean Anomaly(deg)": -19.536618556057054,
        "RAAN(deg)": 90.0070947306326,
        "Satellite Name": "Starlink Shell 3 1806",
        "Satellite Number": 1806,
        "Semi-Major Axis(m)": 6938478.169268562,
        "Time(s)": 680
    },
    {
        "Altitude(m)": 570788.1315379723,
        "Argument of Periapsis(deg)": -0.0273617209478087,
        "Eccentricity": 0.0,
        "Inclination(deg)": 97.0,
        "Latitude(deg)": -19.01932416424534,
        "Longitude(deg)": -10.432443164585983,
        "Mean Anomaly(deg)": -18.911142358351995,
        "RAAN(deg)": 90.00719906490663,
        "Satellite Name": "Starlink Shell 3 1806",
        "Satellite Number": 1806,
        "Semi-Major Axis(m)": 6938478.169268562,
        "Time(s)": 690
    },
    {
        "Altitude(m)": 570591.8011302499,
        "Argument of Periapsis(deg)": -0.027758267628211725,
        "Eccentricity": 0.0,
        "Inclination(deg)": 97.0,
        "Latitude(deg)": -18.396712190793792,
        "Longitude(deg)": -10.55894303873779,
        "Mean Anomaly(deg)": -18.28566616064695,
        "RAAN(deg)": 90.00730339918063,
        "Satellite Name": "Starlink Shell 3 1806",
        "Satellite Number": 1806,
        "Semi-Major Axis(m)": 6938478.169268562,
        "Time(s)": 700
    },
    {
        "Altitude(m)": 570398.6087200632,
        "Argument of Periapsis(deg)": -0.028154814308614752,
        "Eccentricity": 0.0,
        "Inclination(deg)": 97.0,
        "Latitude(deg)": -17.77399733725833,
        "Longitude(deg)": -10.684840750531889,
        "Mean Anomaly(deg)": -17.660189962941942,
        "RAAN(deg)": 90.00740773345464,
        "Satellite Name": "Starlink Shell 3 1806",
        "Satellite Number": 1806,
        "Semi-Major Axis(m)": 6938478.169268562,
        "Time(s)": 710
    },
    {
        "Altitude(m)": 570208.6196680149,
        "Argument of Periapsis(deg)": -0.02855136098901778,
        "Eccentricity": 0.0,
        "Inclination(deg)": 97.0,
        "Latitude(deg)": -17.15118264663881,
        "Longitude(deg)": -10.810162317560527,
        "Mean Anomaly(deg)": -17.034713765236884,
        "RAAN(deg)": 90.00751206772864,
        "Satellite Name": "Starlink Shell 3 1806",
        "Satellite Number": 1806,
        "Semi-Major Axis(m)": 6938478.169268562,
        "Time(s)": 720
    },
    {
        "Altitude(m)": 570021.89771276,
        "Argument of Periapsis(deg)": -0.028947907669420805,
        "Eccentricity": 0.0,
        "Inclination(deg)": 97.0,
        "Latitude(deg)": -16.52827115109134,
        "Longitude(deg)": -10.934932638725064,
        "Mean Anomaly(deg)": -16.409237567531825,
        "RAAN(deg)": 90.00761640200267,
        "Satellite Name": "Starlink Shell 3 1806",
        "Satellite Number": 1806,
        "Semi-Major Axis(m)": 6938478.169268562,
        "Time(s)": 730
    },
    {
        "Altitude(m)": 569838.5049422665,
        "Argument of Periapsis(deg)": -0.029344454349823825,
        "Eccentricity": 0.0,
        "Inclination(deg)": 97.0,
        "Latitude(deg)": -15.905265873199578,
        "Longitude(deg)": -11.05917653525333,
        "Mean Anomaly(deg)": -15.783761369826765,
        "RAAN(deg)": 90.00772073627667,
        "Satellite Name": "Starlink Shell 3 1806",
        "Satellite Number": 1806,
        "Semi-Major Axis(m)": 6938478.169268562,
        "Time(s)": 740
    },
    {
        "Altitude(m)": 569658.5017658772,
        "Argument of Periapsis(deg)": -0.029741001030226845,
        "Eccentricity": 0.0,
        "Inclination(deg)": 97.0,
        "Latitude(deg)": -15.282169827145955,
        "Longitude(deg)": -11.182918277499038,
        "Mean Anomaly(deg)": -15.158285172121706,
        "RAAN(deg)": 90.00782507055067,
        "Satellite Name": "Starlink Shell 3 1806",
        "Satellite Number": 1806,
        "Semi-Major Axis(m)": 6938478.169268562,
        "Time(s)": 750
    }
]